     2.11           N: GPS NAV DATA                         RINEX VERSION / TYPE
teqc  2016Apr1      IGN                 20160612 00:39:06UTCPGM / RUN BY / DATE
    17                                                      LEAP SECONDS
    5.5879D-09  1.4901D-08 -5.9605D-08 -1.1921D-07          ION ALPHA
    8.3968D+04  9.8304D+04 -6.5536D+04 -5.2429D+05          ION BETA
   -3.725290298462D-09-1.509903313490D-14   147456     1901 DELTA-UTC: A0,A1,T,W
                                                            END OF HEADER
19 16  6 11  0  0  0.0-5.255197174847D-04 1.136868377216D-13 0.000000000000D+00
    1.900000000000D+01-2.796875000000D+01 4.613763610345D-09 1.481387431721D+00
   -1.402571797371D-06 1.079524063971D-02 4.852190613747D-06 5.153619119644D+03
    5.184000000000D+05-2.402812242508D-07 2.912464407033D+00 1.117587089539D-07
    9.739208365121D-01 2.968125000000D+02 7.867217619364D-01-8.335704358402D-09
    4.928776731906D-11 1.000000000000D+00 1.900000000000D+03 0.000000000000D+00
    2.000000000000D+00 0.000000000000D+00-1.490116119385D-08 1.900000000000D+01
    5.112180000000D+05 4.000000000000D+00
28 16  6 11  0  0  0.0 5.292608402669D-04 2.614797267597D-12 0.000000000000D+00
    6.600000000000D+01 5.906250000000D+01 3.883733201648D-09-8.431549196439D-01
    3.259629011154D-06 1.973881130107D-02 7.931143045425D-06 5.153632999420D+03
    5.184000000000D+05-2.551823854446D-07 1.847166244563D+00 2.346932888031D-07
    9.893281039323D-01 2.505312500000D+02-1.615936210435D+00-8.128910030303D-09
    3.507288949806D-10 1.000000000000D+00 1.900000000000D+03 0.000000000000D+00
    2.000000000000D+00 0.000000000000D+00-1.117587089539D-08 6.600000000000D+01
    5.112180000000D+05 4.000000000000D+00
23 16  6 11  0  0  0.0-1.775962300599D-04-1.591615728103D-12 0.000000000000D+00
    4.700000000000D+01 2.290625000000D+01 4.960563770249D-09-2.953814537020D+00
    1.063570380211D-06 1.100713515189D-02 5.980953574181D-06 5.153662654877D+03
    5.184000000000D+05-3.166496753693D-08-3.259518599919D-01-1.396983861923D-07
    9.460645882789D-01 2.555312500000D+02-2.566362901510D+00-8.158554122241D-09
   -9.536111503035D-11 1.000000000000D+00 1.900000000000D+03 0.000000000000D+00
    2.000000000000D+00 0.000000000000D+00-2.002343535423D-08 4.700000000000D+01
    5.112180000000D+05 4.000000000000D+00
 9 16  6 11  0  0  0.0 1.462264917791D-04 7.275957614183D-12 0.000000000000D+00
    5.000000000000D+01 2.196875000000D+01 4.856630869598D-09-2.005517069082D+00
    1.063570380211D-06 5.428355652839D-04 6.046146154404D-06 5.153561073303D+03
    5.184000000000D+05 1.303851604462D-08-3.310670466828D-01 5.587935447693D-09
    9.551287760330D-01 2.591875000000D+02 2.326694507205D+00-8.251057975398D-09
   -1.350056235261D-10 1.000000000000D+00 1.900000000000D+03 0.000000000000D+00
    2.000000000000D+00 0.000000000000D+00 1.396983861923D-09 5.000000000000D+01
    5.112180000000D+05 4.000000000000D+00
 5 16  6 11  0  0  0.0-1.138257794082D-04 2.955857780762D-12 0.000000000000D+00
    3.900000000000D+01 6.968750000000D+00 4.827701093128D-09-8.738926907840D-01
    3.017485141754D-07 4.637316334993D-03 9.998679161072D-06 5.153809450150D+03
    5.184000000000D+05 1.434236764908D-07-1.382567944522D+00 3.725290298462D-08
    9.459795239814D-01 1.795312500000D+02 4.532093672236D-01-8.108194881720D-09
    8.607501394126D-11 1.000000000000D+00 1.900000000000D+03 0.000000000000D+00
    2.000000000000D+00 0.000000000000D+00-1.071020960808D-08 3.900000000000D+01
    5.143080000000D+05 4.000000000000D+00
12 16  6 11  0  0  0.0 3.823800943792D-04 1.136868377216D-12 0.000000000000D+00
    6.500000000000D+01 4.703125000000D+01 3.762299572022D-09 1.250543391455D+00
    2.287328243256D-06 6.137430551462D-03 8.242204785347D-06 5.153721902847D+03
    5.184000000000D+05-3.352761268616D-08 1.823439442486D+00 7.264316082001D-08
    9.901075305928D-01 2.327500000000D+02 7.613830289450D-01-7.858898783251D-09
    2.121516941125D-10 1.000000000000D+00 1.900000000000D+03 0.000000000000D+00
    2.000000000000D+00 0.000000000000D+00-1.257285475731D-08 6.500000000000D+01
    5.167080000000D+05 4.000000000000D+00
 2 16  6 11  0  0  0.0 5.862577818334D-04-2.501110429876D-12 0.000000000000D+00
    6.900000000000D+01-9.290625000000D+01 4.981636076567D-09 2.906149010166D+00
   -4.777684807777D-06 1.576772716362D-02 7.681548595428D-06 5.153578569412D+03
    5.184000000000D+05 5.401670932770D-08-2.457889938285D+00-2.551823854446D-07
    9.434140279525D-01 2.163750000000D+02-2.109616120836D+00-8.042120700893D-09
   -2.232235838726D-10 1.000000000000D+00 1.900000000000D+03 0.000000000000D+00
    2.000000000000D+00 0.000000000000D+00-2.002343535423D-08 6.900000000000D+01
    5.112180000000D+05 4.000000000000D+00
 3 16  6 11  0  0  0.0-6.614811718464D-05-3.410605131648D-12 0.000000000000D+00
    5.300000000000D+01 1.609375000000D+01 4.592691116301D-09-2.684491728244D+00
    8.400529623032D-07 2.241693437099D-04 9.356066584587D-06 5.153687492371D+03
    5.184000000000D+05-2.235174179077D-08-1.370471551835D+00 2.048909664154D-08
    9.589119860532D-01 1.973437500000D+02-1.718741189727D+00-7.979974903094D-09
    1.071473187952D-10 1.000000000000D+00 1.900000000000D+03 0.000000000000D+00
    2.000000000000D+00 0.000000000000D+00 1.862645149231D-09 5.300000000000D+01
    5.184000000000D+05
22 16  6 11  0  0  0.0 3.228043206036D-04-8.640199666843D-12 0.000000000000D+00
    5.200000000000D+01 1.721875000000D+01 5.355222931769D-09-2.086429518816D+00
    8.232891559601D-07 7.672446547076D-03 8.981674909592D-06 5.153805191040D+03
    5.184000000000D+05 9.685754776001D-08-1.403373267010D+00-3.725290298462D-09
    9.225427088411D-01 1.832812500000D+02-1.907094034144D+00-8.246415106328D-09
    1.385772052664D-10 1.000000000000D+00 1.900000000000D+03 0.000000000000D+00
    2.000000000000D+00 0.000000000000D+00-1.769512891769D-08 5.200000000000D+01
    5.184000000000D+05
30 16  6 11  0  0  0.0 1.321341842413D-04 2.728484105319D-12 0.000000000000D+00
    5.600000000000D+01 1.575000000000D+01 4.536974795855D-09 1.949516750798D+00
    8.344650268555D-07 2.177626709454D-03 8.353963494301D-06 5.153598297119D+03
    5.184000000000D+05 0.000000000000D+00 7.906559846011D-01 2.793967723846D-08
    9.521881205144D-01 2.140312500000D+02 3.027422342738D+00-8.062835732403D-09
   -2.853690339588D-10 1.000000000000D+00 1.900000000000D+03 0.000000000000D+00
    2.000000000000D+00 0.000000000000D+00 3.259629011154D-09 5.600000000000D+01
    5.184000000000D+05
11 16  6 11  0  0  0.0-6.501721218228D-04-2.614797267597D-12 0.000000000000D+00
    4.800000000000D+01-7.934375000000D+01 6.080253266954D-09 1.940594727960D+00
   -4.397705197334D-06 1.644516072702D-02 5.351379513741D-06 5.153668994904D+03
    5.184000000000D+05 1.862645149231D-07-2.789975680657D+00-3.017485141754D-07
    8.970979113632D-01 2.401250000000D+02 1.529149244918D+00-8.662146527458D-09
   -8.428922527028D-11 1.000000000000D+00 1.900000000000D+03 0.000000000000D+00
    2.800000000000D+00 0.000000000000D+00-1.210719347000D-08 4.800000000000D+01
    5.112000000000D+05
14 16  6 11  0  0  0.0-1.868186518550D-05-2.046363078989D-12 0.000000000000D+00
    9.000000000000D+00 2.387500000000D+01 4.528402911872D-09-1.867773948762D+00
    1.221895217896D-06 8.738004486077D-03 6.005167961121D-06 5.154017997742D+03
    5.184000000000D+05 2.179294824600D-07-2.472954991130D-01-3.166496753693D-08
    9.640533282565D-01 2.670937500000D+02-1.963885930086D+00-7.960331579762D-09
   -1.285767843106D-10 1.000000000000D+00 1.900000000000D+03 0.000000000000D+00
    2.000000000000D+00 0.000000000000D+00-9.313225746155D-09 9.000000000000D+00
    5.112000000000D+05
24 16  6 11  0  0  0.0-1.837778836489D-05-5.684341886081D-13 0.000000000000D+00
    9.200000000000D+01 3.718750000000D+00 4.617692345421D-09 2.764108285645D+00
    2.495944499969D-07 4.416296957061D-03 8.037313818932D-06 5.153615789413D+03
    5.184000000000D+05 2.235174179077D-08 6.993119561214D-01-5.215406417847D-08
    9.495235293406D-01 2.181562500000D+02 4.183185823166D-01-8.120695402416D-09
   -2.564392531528D-10 1.000000000000D+00 1.900000000000D+03 0.000000000000D+00
    2.000000000000D+00 0.000000000000D+00 2.328306436539D-09 9.200000000000D+01
    5.112000000000D+05
25 16  6 11  0  0  0.0-1.879166811705D-04-7.048583938740D-12 0.000000000000D+00
    2.800000000000D+01 4.803125000000D+01 4.039811131492D-09 7.123367488048D-01
    2.285465598106D-06 5.622456315905D-03 8.152797818184D-06 5.153746091843D+03
    5.184000000000D+05-2.421438694000D-08 1.772330816510D+00 5.029141902924D-08
    9.783216261769D-01 2.325937500000D+02 7.830940045171D-01-7.966403261244D-09
    1.796503403006D-10 1.000000000000D+00 1.900000000000D+03 0.000000000000D+00
    2.000000000000D+00 0.000000000000D+00 5.587935447693D-09 2.800000000000D+01
    5.144100000000D+05
31 16  6 11  0  0  0.0 2.645440399647D-04-1.932676241267D-12 0.000000000000D+00
    3.100000000000D+01 3.437500000000D+00 4.062669226480D-09 1.689117835932D+00
    3.203749656677D-07 8.147672284395D-03 8.128583431244D-06 5.153761648178D+03
    5.184000000000D+05-4.097819328308D-08 7.561369476589D-01 1.285225152969D-07
    9.712369318938D-01 2.275312500000D+02-3.953584941425D-01-7.776038188917D-09
   -2.975123925853D-10 1.000000000000D+00 1.900000000000D+03 0.000000000000D+00
    2.000000000000D+00 0.000000000000D+00-1.350417733192D-08 3.100000000000D+01
    5.124600000000D+05
32 16  6 11  0  0  0.0-2.210866659880D-05-7.844391802792D-12 0.000000000000D+00
    7.000000000000D+00 2.575000000000D+01 4.693409785071D-09-1.312958921506D+00
    1.214444637299D-06 4.652233328670D-04 6.278976798058D-06 5.153610586166D+03
    5.184000000000D+05 6.705522537231D-08-3.295999066220D-01-3.725290298462D-09
    9.597229342096D-01 2.615937500000D+02-2.318074021042D+00-8.144624970607D-09
   -1.435774091468D-10 1.000000000000D+00 1.900000000000D+03 0.000000000000D+00
    2.000000000000D+00 0.000000000000D+00 4.656612873077D-10 7.000000000000D+00
    5.112000000000D+05
